[{"OBJECT_NAME":"ORBASTRO-TR5","OBJECT_ID":"2025-052AC","EPOCH":"2026-03-09T16:13:44.206176","MEAN_MOTION":15.21342195,"ECCENTRICITY":0.00056631,"INCLINATION":97.3978,"RA_OF_ASC_NODE":322.1193,"ARG_OF_PERICENTER":133.5462,"MEAN_ANOMALY":226.6245,"EPHEMERIS_TYPE":0,"CLASSIFICATION_TYPE":"U","NORAD_CAT_ID":63236,"ELEMENT_SET_NO":999,"REV_AT_EPOCH":5468,"BSTAR":0.00031434334,"MEAN_MOTION_DOT":6.976e-5,"MEAN_MOTION_DDOT":0},{"OBJECT_NAME":"BANDWAGON-4 OBJECT N","OBJECT_ID":"2025-248N","EPOCH":"2026-03-09T00:44:39.250176","MEAN_MOTION":15.24369076,"ECCENTRICITY":0.00135211,"INCLINATION":45.4084,"RA_OF_ASC_NODE":294.9612,"ARG_OF_PERICENTER":206.7837,"MEAN_ANOMALY":153.2354,"EPHEMERIS_TYPE":0,"CLASSIFICATION_TYPE":"U","NORAD_CAT_ID":66305,"ELEMENT_SET_NO":999,"REV_AT_EPOCH":1717,"BSTAR":0.00097341364,"MEAN_MOTION_DOT":0.00024115,"MEAN_MOTION_DDOT":0}]
