ORBASTRO-TR5            
1 63236U 25052AC  26068.67620609  .00006976  00000+0  31434-3 0  9997
2 63236  97.3978 322.1193 0005663 133.5462 226.6245 15.21342195 54683
BANDWAGON-4 OBJECT N    
1 66305U 25248N   26068.03100984  .00024115  00000+0  97341-3 0  9997
2 66305  45.4084 294.9612 0013521 206.7837 153.2354 15.24369076 17177
